HAWK-11A                
1 62382U 24247F   26068.51231358  .00009457  00000+0  34106-3 0  9991
2 62382  44.9941 114.3328 0005466 327.3713  32.6832 15.28849427 67741
STARLINK-35755          
1 67163U 25303A   26068.09006811  .00039901  00000+0  14510-2 0  9997
2 67163  42.9997 314.0948 0001700 332.6659  27.4103 15.27594287 12646
